BEIDOU-2 G8             
1 44231U 19027A   26161.51113569 -.00000229  00000+0  00000+0 0  9992
2 44231   1.6400  74.4928 0010392 283.7044 229.2176  1.00273512 26013
COSMOS 2534 [GLONASS-M] 
1 44299U 19030A   26161.11031736  .00000113  00000+0  00000+0 0  9992
2 44299  64.3680 192.8548 0013313 275.0224 194.9513  2.13102455 54775
BEIDOU-3 IGSO-2         
1 44337U 19035A   26160.01737213 -.00000043  00000+0  00000+0 0  9994
2 44337  55.2449 158.9337 0039959 216.4337   8.1508  1.00269508 25582
NAVSTAR 78 (USA 293)    
1 44506U 19056A   26160.66603872 -.00000060  00000+0  00000+0 0  9998
2 44506  55.6415 331.4421 0061619 197.5538 159.0803  2.00569631 49917
BEIDOU-3 M24            
1 44542U 19061A   26160.18815803  .00000118  00000+0  00000+0 0  9993
2 44542  54.3960 182.9979 0008280 359.3056   0.7533  1.86229354 45649
BEIDOU-3 M23            
1 44543U 19061B   26160.40028029  .00000120  00000+0  00000+0 0  9998
2 44543  54.3945 182.9589 0005604 337.7254  76.1943  1.86227451 45656
EUTELSAT 5 WEST B       
1 44624U 19067A   26161.33896109 -.00000025  00000+0  00000+0 0  9994
2 44624   0.0628 350.5485 0003056  88.7651 296.4273  1.00271927 24364
BEIDOU-3 IGSO-3         
1 44709U 19073A   26136.81046384 -.00000217  00000+0  00000+0 0  9995
2 44709  54.8566 281.2355 0042953 189.4588 170.3676  1.00246251 24144
BEIDOU-3 M22            
1 44793U 19078A   26160.56479635 -.00000061  00000+0  00000+0 0  9998
2 44793  53.9433 300.0965 0006476  49.2798 310.7668  1.86227604 44501
BEIDOU-3 M21            
1 44794U 19078B   26159.63081975 -.00000059  00000+0  00000+0 0  9998
2 44794  53.9173 300.0906 0004394  47.4319 312.5973  1.86228036 44491
COSMOS 2544 [GLONASS-M] 
1 44850U 19088A   26160.05192801 -.00000018  00000+0  00000+0 0  9996
2 44850  65.5611  74.0023 0013578 259.5106 100.3561  2.13102205 50541
BEIDOU-3 M19            
1 44864U 19090A   26157.45598128 -.00000038  00000+0  00000+0 0  9998
2 44864  56.5493  63.1460 0018115 297.5322 241.6390  1.86231867 44034
BEIDOU-3 M20            
1 44865U 19090B   26161.09867501 -.00000050  00000+0  00000+0 0  9992
2 44865  56.5539  63.0605 0015925 311.2740 239.7297  1.86231666 44086
BEIDOU-3 G2             
1 45344U 20017A   26161.49836784 -.00000125  00000+0  00000+0 0  9992
2 45344   2.8496  47.2293 0002423  30.2866  80.8174  1.00273310 23194
COSMOS 2545 [GLONASS-M] 
1 45358U 20018A   26158.83918744 -.00000031  00000+0  00000+0 0  9995
2 45358  64.3612 312.7475 0007948 231.5141 128.4125  2.13102843 48462
BEIDOU-3 G3             
1 45807U 20040A   26161.50417453 -.00000337  00000+0  00000+0 0  9997
2 45807   2.4297  67.4310 0002734 338.2599 145.2538  1.00270705 22000
NAVSTAR 79 (USA 304)    
1 45854U 20041A   26160.51111454 -.00000065  00000+0  00000+0 0  9990
2 45854  56.6644  29.2419 0063565 204.6400 338.8574  2.00558822 43880
GALAXY 30 (G-30)        
1 46114U 20056C   26161.47128153  .00000054  00000+0  00000+0 0  9993
2 46114   0.0200 325.1638 0002099 109.9404 228.3981  1.00273485 21225
COSMOS 2547 [GLONASS-K] 
1 46805U 20075A   26161.37497828  .00000116  00000+0  00000+0 0  9997
2 46805  64.5989 192.7031 0009224 239.6715 120.3114  2.13100307 43768
NAVSTAR 80 (USA 309)    
1 46826U 20078A   26160.36362656  .00000068  00000+0  00000+0 0  9997
2 46826  53.9808 211.0963 0073236 206.9943 206.0906  2.00564862 41356
NAVSTAR 81 (USA 319)    
1 48859U 21054A   26161.27336171 -.00000062  00000+0  00000+0 0  9999
2 48859  55.1780 332.7381 0025251 228.5591 307.6003  2.00569339 36618
QZS-1R (MICHIBIKI-1R)   
1 49336U 21096A   26160.65203072 -.00000235  00000+0  00000+0 0  9992
2 49336  37.4460  79.6965 0754347 271.6353 275.8796  1.00258277 16935
GSAT0223 (GALILEO 27)   
1 49809U 21116A   26158.90513906 -.00000062  00000+0  00000+0 0  9993
2 49809  57.1628 341.9264 0001255 184.9804 358.2440  1.70476094 28023
GSAT0224 (GALILEO 28)   
1 49810U 21116B   26159.30412110 -.00000062  00000+0  00000+0 0  9995
2 49810  57.1644 341.9144 0000971 150.8556  29.8565  1.70476102 28052
COSMOS 2557 [GLONASS-K] 
1 52984U 22075A   26159.66227093 -.00000033  00000+0  00000+0 0  9997
2 52984  64.3022 314.7857 0010227 275.2722  84.6098  2.13102161 30534
COSMOS 2559 [GLONASS-K] 
1 54031U 22130A   26159.95114162 -.00000034  00000+0  00000+0 0  9999
2 54031  64.2767 314.8589 0012420 178.5990 181.4033  2.13101700 28514
COSMOS 2564 [GLONASS-M] 
1 54377U 22161A   26161.20223190  .00000114  00000+0  00000+0 0  9997
2 54377  64.7411 192.9437 0012105 224.4507 135.5259  2.13102018 27488
NAVSTAR 82 (USA 343)    
1 55268U 23009A   26158.73659273  .00000105  00000+0  00000+0 0  9998
2 55268  55.1217 148.8905 0006217 315.6663 226.9396  2.00572207 25054
BEIDOU-3 G4             
1 56564U 23066A   26161.36764115 -.00000265  00000+0  00000+0 0  9994
2 56564   0.4953 329.6081 0004397 171.1303  30.2733  1.00265779 11329
NVS-01 (IRNSS-1J)       
1 56759U 23076A   26161.53169770 -.00000317  00000+0  00000+0 0  9994
2 56759   2.1827 244.6658 0003071  38.9508 296.2540  1.00268272 11045
COSMOS 2569 [GLONASS-K2]
1 57517U 23114A   26160.74529625 -.00000023  00000+0  00000+0 0  9995
2 57517  65.2980  72.8714 0010917 296.9061  63.0019  2.13103658 22100
