OBJECT_NAME,OBJECT_ID,EPOCH,MEAN_MOTION,ECCENTRICITY,INCLINATION,RA_OF_ASC_NODE,ARG_OF_PERICENTER,MEAN_ANOMALY,EPHEMERIS_TYPE,CLASSIFICATION_TYPE,NORAD_CAT_ID,ELEMENT_SET_NO,REV_AT_EPOCH,BSTAR,MEAN_MOTION_DOT,MEAN_MOTION_DDOT
BEIDOU-2 G8 (C01),2019-027A,2026-06-10T12:16:02.123616,1.00273512,.0010392,1.6400,74.4928,283.7044,229.2176,0,U,44231,999,2601,0,-.229E-5,0
COSMOS 2534 (758),2019-030A,2026-06-10T02:38:51.419904,2.13102455,.00133135,64.3680,192.8548,275.0224,194.9513,0,U,44299,999,5477,0,.113E-5,0
BEIDOU-3 IGSO-2 (C39),2019-035A,2026-06-09T00:25:00.952032,1.00269508,.00399597,55.2449,158.9337,216.4337,8.1508,0,U,44337,999,2558,0,-.43E-6,0
GPS BIII-2  (PRN 18),2019-056A,2026-06-09T15:59:05.745408,2.00569631,.00616191,55.6415,331.4421,197.5538,159.0803,0,U,44506,999,4991,0,-.6E-6,0
BEIDOU-3 M24 (C46),2019-061A,2026-06-09T04:30:56.853792,1.86229354,.00082805,54.3960,182.9979,359.3056,0.7533,0,U,44542,999,4564,0,.118E-5,0
BEIDOU-3 M23 (C45),2019-061B,2026-06-09T09:36:24.217056,1.86227451,.00056042,54.3945,182.9589,337.7254,76.1943,0,U,44543,999,4565,0,.12E-5,0
EUTELSAT 5 WEST B (EGNOS/PRN 121),2019-067A,2026-06-10T08:08:06.238176,1.00271927,.0003056,0.0628,350.5485,88.7651,296.4273,0,U,44624,999,2436,0,-.25E-6,0
BEIDOU-3 IGSO-3 (C40),2019-073A,2026-05-16T19:27:04.075776,1.00246251,.0042953,54.8566,281.2355,189.4588,170.3676,0,U,44709,999,2414,0,-.217E-5,0
BEIDOU-3 M22 (C44),2019-078A,2026-06-09T13:33:18.404640,1.86227604,.0006476,53.9433,300.0965,49.2798,310.7668,0,U,44793,999,4450,0,-.61E-6,0
BEIDOU-3 M21 (C43),2019-078B,2026-06-08T15:08:22.826400,1.86228036,.00043947,53.9173,300.0906,47.4319,312.5973,0,U,44794,999,4449,0,-.59E-6,0
COSMOS 2544 (759),2019-088A,2026-06-09T01:14:46.580064,2.13102205,.0013578,65.5611,74.0023,259.5106,100.3561,0,U,44850,999,5054,0,-.18E-6,0
BEIDOU-3 M19 (C41),2019-090A,2026-06-06T10:56:36.782592,1.86231867,.00181153,56.5493,63.1460,297.5322,241.6390,0,U,44864,999,4403,0,-.38E-6,0
BEIDOU-3 M20 (C42),2019-090B,2026-06-10T02:22:05.520864,1.86231666,.00159258,56.5539,63.0605,311.2740,239.7297,0,U,44865,999,4408,0,-.5E-6,0
BEIDOU-3 G2 (C60),2020-017A,2026-06-10T11:57:38.981376,1.00273310,.0002423,2.8496,47.2293,30.2866,80.8174,0,U,45344,999,2319,0,-.125E-5,0
COSMOS 2545 (760),2020-018A,2026-06-07T20:08:25.794816,2.13102843,.00079483,64.3612,312.7475,231.5141,128.4125,0,U,45358,999,4846,0,-.31E-6,0
BEIDOU-3 G3 (C61),2020-040A,2026-06-10T12:06:00.679392,1.00270705,.0002734,2.4297,67.4310,338.2599,145.2538,0,U,45807,999,2200,0,-.337E-5,0
GPS BIII-3  (PRN 23),2020-041A,2026-06-09T12:16:00.296256,2.00558822,.00635652,56.6644,29.2419,204.6400,338.8574,0,U,45854,999,4388,0,-.65E-6,0
GALAXY 30 (WAAS/PRN 135),2020-056C,2026-06-10T11:18:38.724192,1.00273485,.0002099,0.0200,325.1638,109.9404,228.3981,0,U,46114,999,2122,0,.54E-6,0
COSMOS 2547 (705K),2020-075A,2026-06-10T08:59:58.123392,2.13100307,.0009224,64.5989,192.7031,239.6715,120.3114,0,U,46805,999,4376,0,.116E-5,0
GPS BIII-4  (PRN 14),2020-078A,2026-06-09T08:43:37.334784,2.00564862,.0073236,53.9808,211.0963,206.9943,206.0906,0,U,46826,999,4135,0,.68E-6,0
GPS BIII-5  (PRN 11),2021-054A,2026-06-10T06:33:38.451744,2.00569339,.0025251,55.1780,332.7381,228.5591,307.6003,0,U,48859,999,3661,0,-.62E-6,0
QZS-1R (QZSS/PRN 196),2021-096A,2026-06-09T15:38:55.454208,1.00258277,.07543477,37.4460,79.6965,271.6353,275.8796,0,U,49336,999,1693,0,-.235E-5,0
GSAT0223 (GALILEO 27),2021-116A,2026-06-07T21:43:24.014784,1.70476094,.00012555,57.1628,341.9264,184.9804,358.2440,0,U,49809,999,2802,0,-.62E-6,0
GSAT0224 (GALILEO 28),2021-116B,2026-06-08T07:17:56.063040,1.70476102,.00009719,57.1644,341.9144,150.8556,29.8565,0,U,49810,999,2805,0,-.62E-6,0
COSMOS 2557 (706K),2022-075A,2026-06-08T15:53:40.208352,2.13102161,.00102278,64.3022,314.7857,275.2722,84.6098,0,U,52984,999,3053,0,-.33E-6,0
COSMOS 2559 (707K),2022-130A,2026-06-08T22:49:38.635968,2.13101700,.00124201,64.2767,314.8589,178.5990,181.4033,0,U,54031,999,2851,0,-.34E-6,0
COSMOS 2564 (761),2022-161A,2026-06-10T04:51:12.836160,2.13102018,.0012105,64.7411,192.9437,224.4507,135.5259,0,U,54377,999,2748,0,.114E-5,0
GPS BIII-6  (PRN 28),2023-009A,2026-06-07T17:40:41.611872,2.00572207,.00062176,55.1217,148.8905,315.6663,226.9396,0,U,55268,999,2505,0,.105E-5,0
BEIDOU-3 G4 (C62),2023-066A,2026-06-10T08:49:24.195360,1.00265779,.0004397,0.4953,329.6081,171.1303,30.2733,0,U,56564,999,1132,0,-.265E-5,0
NVS-01 (IRNSS-1J),2023-076A,2026-06-10T12:45:38.681280,1.00268272,.0003071,2.1827,244.6658,38.9508,296.2540,0,U,56759,999,1104,0,-.317E-5,0
COSMOS 2569 (703K),2023-114A,2026-06-09T17:53:13.596000,2.13103658,.00109175,65.2980,72.8714,296.9061,63.0019,0,U,57517,999,2210,0,-.23E-6,0
